start=new Date('2022-07-11T00:00:00.000Z').valueOf();
sats=[{"INCLINATION":"53.2159","COUNTRY_CODE":"US","TIME_SYSTEM":"UTC","FILE":"3511318","REV_AT_EPOCH":"3356","TLE_LINE2":"2 49747  53.2159  34.9104 0001821  72.4870 287.6321 15.08823442 33562","OBJECT_ID":"2021-115Z","OBJECT_TYPE":"PAYLOAD","LAUNCH_DATE":"2021-12-02","RCS_SIZE":"LARGE","REF_FRAME":"TEME","PERIOD":"95.439","CENTER_NAME":"EARTH","SEMIMAJOR_AXIS":"6917.931","ELEMENT_SET_NO":"999","RA_OF_ASC_NODE":"34.9104","MEAN_MOTION":"15.08823442","OBJECT_NAME":"STARLINK-3247","GP_ID":"207876779","MEAN_ELEMENT_THEORY":"SGP4","MEAN_ANOMALY":"287.6321","PERIAPSIS":"538.536","ECCENTRICITY":"0.00018210","MEAN_MOTION_DOT":"-0.00001513","APOAPSIS":"541.056","EPOCH":"2022-07-10T20:24:13.743648","BSTAR":"-0.00007699600000","CLASSIFICATION_TYPE":"U","ARG_OF_PERICENTER":"72.4870","EPHEMERIS_TYPE":"0","SITE":"AFETR","MEAN_MOTION_DDOT":"0.0000000000000","DECAY_DATE":null,"TLE_LINE1":"1 49747U 21115Z   22191.85015907 -.00001513  00000-0 -76996-4 0  9994","NORAD_CAT_ID":"49747"},{"ECCENTRICITY":"0.00021380","PERIAPSIS":"538.300","APOAPSIS":"541.258","MEAN_MOTION_DOT":"-0.00001626","ARG_OF_PERICENTER":"68.8137","EPHEMERIS_TYPE":"0","BSTAR":"-0.00008409600000","CLASSIFICATION_TYPE":"U","EPOCH":"2022-07-10T20:50:44.016864","NORAD_CAT_ID":"49748","TLE_LINE1":"1 49748U 21115AA  22191.86856501 -.00001626  00000-0 -84096-4 0  9994","DECAY_DATE":null,"MEAN_MOTION_DDOT":"0.0000000000000","SITE":"AFETR","TLE_LINE2":"2 49748  53.2187  34.8439 0002138  68.8137 291.3084 15.08829045 33575","REV_AT_EPOCH":"3357","FILE":"3511318","TIME_SYSTEM":"UTC","COUNTRY_CODE":"US","INCLINATION":"53.2187","ELEMENT_SET_NO":"999","SEMIMAJOR_AXIS":"6917.914","PERIOD":"95.438","CENTER_NAME":"EARTH","REF_FRAME":"TEME","RCS_SIZE":"LARGE","LAUNCH_DATE":"2021-12-02","OBJECT_ID":"2021-115AA","OBJECT_TYPE":"PAYLOAD","MEAN_MOTION":"15.08829045","RA_OF_ASC_NODE":"34.8439","MEAN_ANOMALY":"291.3084","MEAN_ELEMENT_THEORY":"SGP4","GP_ID":"207876523","OBJECT_NAME":"STARLINK-3248"},{"CENTER_NAME":"EARTH","PERIOD":"95.438","SEMIMAJOR_AXIS":"6917.895","ELEMENT_SET_NO":"999","REF_FRAME":"TEME","RCS_SIZE":"LARGE","LAUNCH_DATE":"2021-12-02","OBJECT_ID":"2021-115AB","OBJECT_TYPE":"PAYLOAD","TLE_LINE2":"2 49749  53.2180  34.8850 0001578  61.3058 298.8093 15.08835380 33563","FILE":"3511318","REV_AT_EPOCH":"3356","COUNTRY_CODE":"US","INCLINATION":"53.2180","TIME_SYSTEM":"UTC","MEAN_ANOMALY":"298.8093","MEAN_ELEMENT_THEORY":"SGP4","GP_ID":"207875277","OBJECT_NAME":"STARLINK-3250","RA_OF_ASC_NODE":"34.8850","MEAN_MOTION":"15.08835380","APOAPSIS":"540.851","MEAN_MOTION_DOT":"-0.00002127","ECCENTRICITY":"0.00015780","PERIAPSIS":"538.668","TLE_LINE1":"1 49749U 21115AB  22191.85751242 -.00002127  00000-0 -11559-3 0  9990","NORAD_CAT_ID":"49749","DECAY_DATE":null,"SITE":"AFETR","MEAN_MOTION_DDOT":"0.0000000000000","ARG_OF_PERICENTER":"61.3058","EPHEMERIS_TYPE":"0","BSTAR":"-0.00011559000000","CLASSIFICATION_TYPE":"U","EPOCH":"2022-07-10T20:34:49.073088"},{"MEAN_MOTION":"15.08811425","RA_OF_ASC_NODE":"34.8128","GP_ID":"207875527","OBJECT_NAME":"STARLINK-3236","MEAN_ELEMENT_THEORY":"SGP4","MEAN_ANOMALY":"288.6705","TIME_SYSTEM":"UTC","INCLINATION":"53.2176","COUNTRY_CODE":"US","TLE_LINE2":"2 49750  53.2176  34.8128 0002124  71.4518 288.6705 15.08811425 33571","REV_AT_EPOCH":"3357","FILE":"3511318","LAUNCH_DATE":"2021-12-02","RCS_SIZE":"LARGE","OBJECT_TYPE":"PAYLOAD","OBJECT_ID":"2021-115AC","ELEMENT_SET_NO":"999","SEMIMAJOR_AXIS":"6917.968","PERIOD":"95.439","CENTER_NAME":"EARTH","REF_FRAME":"TEME","EPOCH":"2022-07-10T21:01:20.331264","ARG_OF_PERICENTER":"71.4518","EPHEMERIS_TYPE":"0","BSTAR":"0.00101730000000","CLASSIFICATION_TYPE":"U","MEAN_MOTION_DDOT":"0.0000000000000","SITE":"AFETR","NORAD_CAT_ID":"49750","TLE_LINE1":"1 49750U 21115AC  22191.87592976  .00015927  00000-0  10173-2 0  9991","DECAY_DATE":null,"ECCENTRICITY":"0.00021240","PERIAPSIS":"538.363","MEAN_MOTION_DOT":"0.00015927","APOAPSIS":"541.302"},{"REF_FRAME":"TEME","ELEMENT_SET_NO":"999","PERIOD":"95.438","CENTER_NAME":"EARTH","SEMIMAJOR_AXIS":"6917.879","OBJECT_ID":"2021-115AD","OBJECT_TYPE":"PAYLOAD","LAUNCH_DATE":"2021-12-02","RCS_SIZE":"LARGE","REV_AT_EPOCH":"3357","FILE":"3511318","TLE_LINE2":"2 49751  53.2184  34.8559 0001808  63.6140 296.5037 15.08840403 33575","TIME_SYSTEM":"UTC","INCLINATION":"53.2184","COUNTRY_CODE":"US","MEAN_ELEMENT_THEORY":"SGP4","MEAN_ANOMALY":"296.5037","OBJECT_NAME":"STARLINK-3229","GP_ID":"207876279","MEAN_MOTION":"15.08840403","RA_OF_ASC_NODE":"34.8559","APOAPSIS":"540.995","MEAN_MOTION_DOT":"0.00002688","PERIAPSIS":"538.493","ECCENTRICITY":"0.00018080","DECAY_DATE":null,"NORAD_CAT_ID":"49751","TLE_LINE1":"1 49751U 21115AD  22191.86488459  .00002688  00000-0  18691-3 0  9995","SITE":"AFETR","MEAN_MOTION_DDOT":"0.0000000000000","BSTAR":"0.00018691000000","CLASSIFICATION_TYPE":"U","ARG_OF_PERICENTER":"63.6140","EPHEMERIS_TYPE":"0","EPOCH":"2022-07-10T20:45:26.028576"},{"TLE_LINE1":"1 49752U 21115AE  22191.82531318  .00022331  00000-0  14168-2 0  9996","NORAD_CAT_ID":"49752","DECAY_DATE":null,"MEAN_MOTION_DDOT":"0.0000000000000","SITE":"AFETR","EPHEMERIS_TYPE":"0","ARG_OF_PERICENTER":"53.9886","CLASSIFICATION_TYPE":"U","BSTAR":"0.00141680000000","EPOCH":"2022-07-10T19:48:27.058752","APOAPSIS":"540.806","MEAN_MOTION_DOT":"0.00022331","ECCENTRICITY":"0.00015260","PERIAPSIS":"538.695","MEAN_ELEMENT_THEORY":"SGP4","MEAN_ANOMALY":"306.1247","GP_ID":"207877024","OBJECT_NAME":"STARLINK-3209","RA_OF_ASC_NODE":"25.0430","MEAN_MOTION":"15.08838354","PERIOD":"95.438","SEMIMAJOR_AXIS":"6917.885","CENTER_NAME":"EARTH","ELEMENT_SET_NO":"999","REF_FRAME":"TEME","RCS_SIZE":"LARGE","LAUNCH_DATE":"2021-12-02","OBJECT_ID":"2021-115AE","OBJECT_TYPE":"PAYLOAD","TLE_LINE2":"2 49752  53.2167  25.0430 0001526  53.9886 306.1247 15.08838354 33701","FILE":"3511318","REV_AT_EPOCH":"3370","COUNTRY_CODE":"US","INCLINATION":"53.2167","TIME_SYSTEM":"UTC"},{"MEAN_MOTION":"15.08829946","RA_OF_ASC_NODE":"34.8299","MEAN_ANOMALY":"291.7561","MEAN_ELEMENT_THEORY":"SGP4","OBJECT_NAME":"STARLINK-3200","GP_ID":"207875778","REV_AT_EPOCH":"3357","FILE":"3511318","TLE_LINE2":"2 49753  53.2176  34.8299 0001673  68.3609 291.7561 15.08829946 33579","TIME_SYSTEM":"UTC","INCLINATION":"53.2176","COUNTRY_CODE":"US","REF_FRAME":"TEME","ELEMENT_SET_NO":"999","PERIOD":"95.438","CENTER_NAME":"EARTH","SEMIMAJOR_AXIS":"6917.911","OBJECT_ID":"2021-115AF","OBJECT_TYPE":"PAYLOAD","LAUNCH_DATE":"2021-12-02","RCS_SIZE":"LARGE","BSTAR":"0.00064865000000","CLASSIFICATION_TYPE":"U","ARG_OF_PERICENTER":"68.3609","EPHEMERIS_TYPE":"0","EPOCH":"2022-07-10T20:56:01.224096","DECAY_DATE":null,"NORAD_CAT_ID":"49753","TLE_LINE1":"1 49753U 21115AF  22191.87223639  .00010047  00000-0  64865-3 0  9997","MEAN_MOTION_DDOT":"0.0000000000000","SITE":"AFETR","PERIAPSIS":"538.619","ECCENTRICITY":"0.00016730","APOAPSIS":"540.933","MEAN_MOTION_DOT":"0.00010047"},{"MEAN_ELEMENT_THEORY":"SGP4","MEAN_ANOMALY":"267.3215","OBJECT_NAME":"STARLINK-3193","GP_ID":"207876028","MEAN_MOTION":"15.08826316","RA_OF_ASC_NODE":"25.0542","REF_FRAME":"TEME","ELEMENT_SET_NO":"999","PERIOD":"95.438","SEMIMAJOR_AXIS":"6917.922","CENTER_NAME":"EARTH","OBJECT_ID":"2021-115AG","OBJECT_TYPE":"PAYLOAD","LAUNCH_DATE":"2021-12-02","RCS_SIZE":"LARGE","REV_AT_EPOCH":"3370","FILE":"3511318","TLE_LINE2":"2 49754  53.2176  25.0542 0008310  92.8728 267.3215 15.08826316 33700","TIME_SYSTEM":"UTC","COUNTRY_CODE":"US","INCLINATION":"53.2176","DECAY_DATE":null,"NORAD_CAT_ID":"49754","TLE_LINE1":"1 49754U 21115AG  22191.81893165  .00001602  00000-0  11887-3 0  9992","SITE":"AFETR","MEAN_MOTION_DDOT":"0.0000000000000","BSTAR":"0.00011887000000","CLASSIFICATION_TYPE":"U","EPHEMERIS_TYPE":"0","ARG_OF_PERICENTER":"92.8728","EPOCH":"2022-07-10T19:39:15.694560","APOAPSIS":"545.536","MEAN_MOTION_DOT":"0.00001602","PERIAPSIS":"534.038","ECCENTRICITY":"0.00083100"},{"DECAY_DATE":null,"TLE_LINE1":"1 49755U 21115AH  22191.74711977 -.00004061  00000-0 -23727-3 0  9995","NORAD_CAT_ID":"49755","MEAN_MOTION_DDOT":"0.0000000000000","SITE":"AFETR","BSTAR":"-0.00023727000000","CLASSIFICATION_TYPE":"U","ARG_OF_PERICENTER":"98.2993","EPHEMERIS_TYPE":"0","EPOCH":"2022-07-10T17:55:51.148128","APOAPSIS":"541.748","MEAN_MOTION_DOT":"-0.00004061","PERIAPSIS":"537.874","ECCENTRICITY":"0.00028000","MEAN_ANOMALY":"261.8316","MEAN_ELEMENT_THEORY":"SGP4","OBJECT_NAME":"STARLINK-3210","GP_ID":"207876780","RA_OF_ASC_NODE":"35.3792","MEAN_MOTION":"15.08818690","REF_FRAME":"TEME","PERIOD":"95.439","SEMIMAJOR_AXIS":"6917.946","CENTER_NAME":"EARTH","ELEMENT_SET_NO":"999","OBJECT_TYPE":"PAYLOAD","OBJECT_ID":"2021-115AH","RCS_SIZE":"LARGE","LAUNCH_DATE":"2021-12-02","FILE":"3511318","REV_AT_EPOCH":"3355","TLE_LINE2":"2 49755  53.2183  35.3792 0002800  98.2993 261.8316 15.08818690 33552","INCLINATION":"53.2183","COUNTRY_CODE":"US","TIME_SYSTEM":"UTC"},{"MEAN_MOTION_DOT":"-0.00002488","APOAPSIS":"540.788","PERIAPSIS":"538.786","ECCENTRICITY":"0.00014470","MEAN_MOTION_DDOT":"0.0000000000000","SITE":"AFETR","DECAY_DATE":null,"NORAD_CAT_ID":"49756","TLE_LINE1":"1 49756U 21115AJ  22191.83636141 -.00002488  00000-0 -13836-3 0  9996","EPOCH":"2022-07-10T20:04:21.625824","BSTAR":"-0.00013836000000","CLASSIFICATION_TYPE":"U","EPHEMERIS_TYPE":"0","ARG_OF_PERICENTER":"60.7694","OBJECT_ID":"2021-115AJ","OBJECT_TYPE":"PAYLOAD","RCS_SIZE":"LARGE","LAUNCH_DATE":"2021-12-02","REF_FRAME":"TEME","ELEMENT_SET_NO":"999","PERIOD":"95.438","SEMIMAJOR_AXIS":"6917.922","CENTER_NAME":"EARTH","TIME_SYSTEM":"UTC","INCLINATION":"53.2164","COUNTRY_CODE":"US","REV_AT_EPOCH":"3481","FILE":"3511295","TLE_LINE2":"2 49756  53.2164  24.9812 0001447  60.7694 299.3443 15.08826417 34810","OBJECT_NAME":"STARLINK-3207","GP_ID":"207852072","MEAN_ELEMENT_THEORY":"SGP4","MEAN_ANOMALY":"299.3443","MEAN_MOTION":"15.08826417","RA_OF_ASC_NODE":"24.9812"}];
